0 ATLAS CENTAUR 2 DEB
1 00739U 63047H   13282.53280942  .00000416  00000-0  58564-4 0  5504
2 00739 030.4228 311.4597 0652313 019.9289 137.0942 13.81166224499662
0 ATLAS CENTAUR 2 DEB
1 00739U 63047H   13287.14014132  .00000399  00000-0  56644-4 0  5521
2 00739 030.4225 286.9643 0652332 058.5089 005.6887 13.81169525500304
0 ATLAS CENTAUR 2 DEB
1 00739U 63047H   13289.16785656  .00000430  00000-0  61828-4 0  5538
2 00739 030.4226 276.1837 0652306 075.4866 007.9245 13.81172042500584
0 ATLAS CENTAUR 2 DEB
1 00739U 63047H   13291.19561825  .00000421  00000-0  59923-4 0  5548
2 00739 030.4228 265.4026 0652256 092.4687 010.4042 13.81173429500866
0 ATLAS CENTAUR 2 DEB
1 00739U 63047H   13293.29372501  .00000446  00000-0  63416-4 0  5552
2 00739 030.4231 254.2471 0652203 110.0451 002.6616 13.81174806501151
0 ATLAS CENTAUR 2 DEB
1 00739U 63047H   13295.32152994  .00000425  00000-0  59021-4 0  5565
2 00739 030.4237 243.4655 0652199 127.0319 005.3717 13.81176534501439
